TIANQI-39               
1 67478U 26010C   26025.98950504  .00000282  00000+0  21528-3 0  9998
2 67478  44.9845 357.1944 0010881   2.2084 357.8801 14.14525315  1447
TIANQI-40               
1 67479U 26010D   26025.98941228  .00000283  00000+0  21569-3 0  9998
2 67479  44.9851 357.1942 0011635 358.4330   1.6471 14.14537680  1446
TRANSPORTER-15DT        
1 67483U 25276DT  26025.90085694  .00002287  00000+0  20012-3 0  9992
2 67483  97.5430 101.5003 0010161 246.4048 113.6108 14.97643116  1312
STARLINK-36551          
1 67493U 26012A   26019.01773773 -.00002725  86142-5  00000+0 0  9995
2 67493  43.0100 248.3700 0007700 319.9700  13.3500 16.05267929    16
STARLINK-36396          
1 67494U 26012B   26019.01773773 -.00002725  86142-5  00000+0 0  9996
2 67494  43.0100 248.3700 0007700 319.9700  13.3500 16.05267929    17
STARLINK-36550          
1 67495U 26012C   26019.01773773 -.00002725  86142-5  00000+0 0  9997
2 67495  43.0100 248.3700 0007700 319.9700  13.3500 16.05267929    18
STARLINK-36534          
1 67496U 26012D   26019.01773773 -.00002725  86142-5  00000+0 0  9998
2 67496  43.0100 248.3700 0007700 319.9700  13.3500 16.05267929    19
STARLINK-36555          
1 67497U 26012E   26019.01773773 -.00002725  86142-5  00000+0 0  9999
2 67497  43.0100 248.3700 0007700 319.9700  13.3500 16.05267929    10
STARLINK-36081          
1 67498U 26012F   26019.01773773 -.00002725  86142-5  00000+0 0  9990
2 67498  43.0100 248.3700 0007700 319.9700  13.3500 16.05267929    11
STARLINK-36558          
1 67499U 26012G   26019.01773773 -.00002725  86142-5  00000+0 0  9991
2 67499  43.0100 248.3700 0007700 319.9700  13.3500 16.05267929    12
STARLINK-36557          
1 67500U 26012H   26019.01773773 -.00002725  86142-5  00000+0 0  9994
2 67500  43.0100 248.3700 0007700 319.9700  13.3500 16.05267929    15
STARLINK-36433          
1 67501U 26012J   26019.01773773 -.00002725  86142-5  00000+0 0  9995
2 67501  43.0100 248.3700 0007700 319.9700  13.3500 16.05267929    16
